[{"OBJECT_NAME":"STARLINK-31990","OBJECT_ID":"2024-111J","EPOCH":"2026-03-09T10:13:51.253824","MEAN_MOTION":15.30198254,"ECCENTRICITY":0.00013152,"INCLINATION":53.1603,"RA_OF_ASC_NODE":76.8141,"ARG_OF_PERICENTER":79.9686,"MEAN_ANOMALY":280.1464,"EPHEMERIS_TYPE":0,"CLASSIFICATION_TYPE":"U","NORAD_CAT_ID":60024,"ELEMENT_SET_NO":999,"REV_AT_EPOCH":9899,"BSTAR":1.8820228e-5,"MEAN_MOTION_DOT":1.98e-6,"MEAN_MOTION_DDOT":0},{"OBJECT_NAME":"ASRTU-1 (AO-123)","OBJECT_ID":"2024-199AY","EPOCH":"2026-03-09T22:36:42.151392","MEAN_MOTION":15.34070057,"ECCENTRICITY":0.0012786,"INCLINATION":97.3152,"RA_OF_ASC_NODE":298.5256,"ARG_OF_PERICENTER":309.3392,"MEAN_ANOMALY":50.6717,"EPHEMERIS_TYPE":0,"CLASSIFICATION_TYPE":"U","NORAD_CAT_ID":61781,"ELEMENT_SET_NO":999,"REV_AT_EPOCH":11870,"BSTAR":0.00032267684,"MEAN_MOTION_DOT":0.00010589,"MEAN_MOTION_DDOT":0}]
